{"type": "FeatureCollection", "features": [ {"type": "Feature", "properties": {"norad_id": 36439, "name": "COSMOS 2251 DEB", "group": "cosmos-2251-debris", "lat": 19.63886622890822, "lon": -155.42275821269865, "alt_km": 1373.6592433308633, "timestamp": "2025-12-16T15:45:51.443117+00:00", "meta": {"OBJECT_NAME": "COSMOS 2251 DEB", "OBJECT_ID": "1993-036BAN", "EPOCH": "2025-12-14T09:32:51.470880", "MEAN_MOTION": 13.47799978, "ECCENTRICITY": 0.04278843, "INCLINATION": 73.9685, "RA_OF_ASC_NODE": 34.0698, "ARG_OF_PERICENTER": 5.5967, "MEAN_ANOMALY": 354.9698, "EPHEMERIS_TYPE": 0, "CLASSIFICATION_TYPE": "U", "NORAD_CAT_ID": 36439, "ELEMENT_SET_NO": 999, "REV_AT_EPOCH": 58635, "BSTAR": 0.0013173309, "MEAN_MOTION_DOT": 1.398e-05, "MEAN_MOTION_DDOT": 0}, "tle": {"line1": "1 36439U 93036BAN 25348.39781795  .00001398  00000+0  13173-2 0  9994", "line2": "2 36439  73.9685  34.0698 0427884   5.5967 354.9698 13.47799978586355"}}, "geometry": {"type": "Point", "coordinates": [-155.42275821269865, 19.63886622890822]}}, {"type": "Feature", "properties": {"norad_id": 36441, "name": "COSMOS 2251 DEB", "group": "cosmos-2251-debris", "lat": 46.55095767361258, "lon": -0.560760956654406, "alt_km": 476.6657872067308, "timestamp": "2025-12-16T15:45:51.443127+00:00", "meta": {"OBJECT_NAME": "COSMOS 2251 DEB", "OBJECT_ID": "1993-036BAQ", "EPOCH": "2025-12-15T06:05:15.368640", "MEAN_MOTION": 15.06805702, "ECCENTRICITY": 0.01084779, "INCLINATION": 73.8354, "RA_OF_ASC_NODE": 344.5255, "ARG_OF_PERICENTER": 83.0253, "MEAN_ANOMALY": 278.326, "EPHEMERIS_TYPE": 0, "CLASSIFICATION_TYPE": "U", "NORAD_CAT_ID": 36441, "ELEMENT_SET_NO": 999, "REV_AT_EPOCH": 87003, "BSTAR": 0.00030687329, "MEAN_MOTION_DOT": 5.184e-05, "MEAN_MOTION_DDOT": 0}, "tle": {"line1": "1 36441U 93036BAQ 25349.25365010  .00005184  00000+0  30687-3 0  9998", "line2": "2 36441  73.8354 344.5255 0108477  83.0253 278.3260 15.06805702870036"}}, "geometry": {"type": "Point", "coordinates": [-0.560760956654406, 46.55095767361258]}}, {"type": "Feature", "properties": {"norad_id": 36442, "name": "COSMOS 2251 DEB", "group": "cosmos-2251-debris", "lat": 7.102599947963978, "lon": -151.18576782197002, "alt_km": 477.3526106617546, "timestamp": "2025-12-16T15:45:51.443137+00:00", "meta": {"OBJECT_NAME": "COSMOS 2251 DEB", "OBJECT_ID": "1993-036BAR", "EPOCH": "2025-12-13T10:09:44.142048", "MEAN_MOTION": 15.30178674, "ECCENTRICITY": 0.00085328, "INCLINATION": 73.9496, "RA_OF_ASC_NODE": 37.7946, "ARG_OF_PERICENTER": 324.6725, "MEAN_ANOMALY": 35.3911, "EPHEMERIS_TYPE": 0, "CLASSIFICATION_TYPE": "U", "NORAD_CAT_ID": 36442, "ELEMENT_SET_NO": 999, "REV_AT_EPOCH": 85926, "BSTAR": 0.0075856442, "MEAN_MOTION_DOT": 0.00228665, "MEAN_MOTION_DDOT": 0}, "tle": {"line1": "1 36442U 93036BAR 25347.42342757  .00228665  00000+0  75856-2 0  9996", "line2": "2 36442  73.9496  37.7946 0008532 324.6725  35.3911 15.30178674859266"}}, "geometry": {"type": "Point", "coordinates": [-151.18576782197002, 7.102599947963978]}}, {"type": "Feature", "properties": {"norad_id": 36451, "name": "COSMOS 2251 DEB", "group": "cosmos-2251-debris", "lat": -72.73855911818625, "lon": -99.65371852572555, "alt_km": 910.0927630485794, "timestamp": "2025-12-16T15:45:51.443147+00:00", "meta": {"OBJECT_NAME": "COSMOS 2251 DEB", "OBJECT_ID": "1993-036BBA", "EPOCH": "2025-12-08T10:10:07.447584", "MEAN_MOTION": 14.18724413, "ECCENTRICITY": 0.01840749, "INCLINATION": 73.9539, "RA_OF_ASC_NODE": 342.9701, "ARG_OF_PERICENTER": 168.3937, "MEAN_ANOMALY": 192.1542, "EPHEMERIS_TYPE": 0, "CLASSIFICATION_TYPE": "U", "NORAD_CAT_ID": 36451, "ELEMENT_SET_NO": 999, "REV_AT_EPOCH": 84164, "BSTAR": 0.0010726423, "MEAN_MOTION_DOT": 2.61e-05, "MEAN_MOTION_DDOT": 0}, "tle": {"line1": "1 36451U 93036BBA 25342.42369731  .00002610  00000+0  10726-2 0  9997", "line2": "2 36451  73.9539 342.9701 0184074 168.3937 192.1542 14.18724413841646"}}, "geometry": {"type": "Point", "coordinates": [-99.65371852572555, -72.73855911818625]}}, {"type": "Feature", "properties": {"norad_id": 36453, "name": "COSMOS 2251 DEB", "group": "cosmos-2251-debris", "lat": -68.02079008962619, "lon": 99.34505948321733, "alt_km": 750.2532307416732, "timestamp": "2025-12-16T15:45:51.443157+00:00", "meta": {"OBJECT_NAME": "COSMOS 2251 DEB", "OBJECT_ID": "1993-036BBC", "EPOCH": "2025-12-14T21:50:20.335776", "MEAN_MOTION": 14.5262544, "ECCENTRICITY": 0.00704026, "INCLINATION": 73.9229, "RA_OF_ASC_NODE": 148.2665, "ARG_OF_PERICENTER": 51.0151, "MEAN_ANOMALY": 103.2875, "EPHEMERIS_TYPE": 0, "CLASSIFICATION_TYPE": "U", "NORAD_CAT_ID": 36453, "ELEMENT_SET_NO": 999, "REV_AT_EPOCH": 84499, "BSTAR": 0.00063328924, "MEAN_MOTION_DOT": 2.649e-05, "MEAN_MOTION_DDOT": 0}, "tle": {"line1": "1 36453U 93036BBC 25348.90995759  .00002649  00000+0  63329-3 0  9993", "line2": "2 36453  73.9229 148.2665 0070402  51.0151 103.2875 14.52625440844996"}}, "geometry": {"type": "Point", "coordinates": [99.34505948321733, -68.02079008962619]}}, {"type": "Feature", "properties": {"norad_id": 36459, "name": "COSMOS 2251 DEB", "group": "cosmos-2251-debris", "lat": -15.804199235684608, "lon": 177.3646967351139, "alt_km": 833.6103560993397, "timestamp": "2025-12-16T15:45:51.443167+00:00", "meta": {"OBJECT_NAME": "COSMOS 2251 DEB", "OBJECT_ID": "1993-036BBJ", "EPOCH": "2025-12-15T06:52:40.994112", "MEAN_MOTION": 14.2642949, "ECCENTRICITY": 0.01133967, "INCLINATION": 74.0484, "RA_OF_ASC_NODE": 355.1955, "ARG_OF_PERICENTER": 90.2624, "MEAN_ANOMALY": 271.1518, "EPHEMERIS_TYPE": 0, "CLASSIFICATION_TYPE": "U", "NORAD_CAT_ID": 36459, "ELEMENT_SET_NO": 999, "REV_AT_EPOCH": 7918, "BSTAR": 0.0010918207, "MEAN_MOTION_DOT": 2.788e-05, "MEAN_MOTION_DDOT": 0}, "tle": {"line1": "1 36459U 93036BBJ 25349.28658558  .00002788  00000+0  10918-2 0  9993", "line2": "2 36459  74.0484 355.1955 0113396  90.2624 271.1518 14.26429490 79186"}}, "geometry": {"type": "Point", "coordinates": [177.3646967351139, -15.804199235684608]}}, {"type": "Feature", "properties": {"norad_id": 36470, "name": "COSMOS 2251 DEB", "group": "cosmos-2251-debris", "lat": -56.44434362128396, "lon": -139.65703419294516, "alt_km": 560.7852719240591, "timestamp": "2025-12-16T15:45:51.443177+00:00", "meta": {"OBJECT_NAME": "COSMOS 2251 DEB", "OBJECT_ID": "1993-036BBV", "EPOCH": "2025-12-15T00:13:00.014016", "MEAN_MOTION": 15.07582269, "ECCENTRICITY": 0.00222568, "INCLINATION": 73.8449, "RA_OF_ASC_NODE": 249.6845, "ARG_OF_PERICENTER": 78.1368, "MEAN_ANOMALY": 282.2316, "EPHEMERIS_TYPE": 0, "CLASSIFICATION_TYPE": "U", "NORAD_CAT_ID": 36470, "ELEMENT_SET_NO": 999, "REV_AT_EPOCH": 66128, "BSTAR": 0.0018721064, "MEAN_MOTION_DOT": 0.0002872, "MEAN_MOTION_DDOT": 0}, "tle": {"line1": "1 36470U 93036BBV 25349.00902794  .00028720  00000+0  18721-2 0  9994", "line2": "2 36470  73.8449 249.6845 0022256  78.1368 282.2316 15.07582269661287"}}, "geometry": {"type": "Point", "coordinates": [-139.65703419294516, -56.44434362128396]}}, {"type": "Feature", "properties": {"norad_id": 36528, "name": "COSMOS 2251 DEB", "group": "cosmos-2251-debris", "lat": 7.68422670180415, "lon": 140.29779189304858, "alt_km": 851.7855559798172, "timestamp": "2025-12-16T15:45:51.443187+00:00", "meta": {"OBJECT_NAME": "COSMOS 2251 DEB", "OBJECT_ID": "1993-036BCN", "EPOCH": "2025-12-14T16:44:10.040352", "MEAN_MOTION": 14.30658136, "ECCENTRICITY": 0.00847741, "INCLINATION": 74.0159, "RA_OF_ASC_NODE": 141.651, "ARG_OF_PERICENTER": 190.7529, "MEAN_ANOMALY": 169.1813, "EPHEMERIS_TYPE": 0, "CLASSIFICATION_TYPE": "U", "NORAD_CAT_ID": 36528, "ELEMENT_SET_NO": 999, "REV_AT_EPOCH": 64455, "BSTAR": 0.0012089622, "MEAN_MOTION_DOT": 3.261e-05, "MEAN_MOTION_DDOT": 0}, "tle": {"line1": "1 36528U 93036BCN 25348.69733843  .00003261  00000+0  12090-2 0  9995", "line2": "2 36528  74.0159 141.6510 0084774 190.7529 169.1813 14.30658136644553"}}, "geometry": {"type": "Point", "coordinates": [140.29779189304858, 7.68422670180415]}}, {"type": "Feature", "properties": {"norad_id": 36533, "name": "COSMOS 2251 DEB", "group": "cosmos-2251-debris", "lat": 68.90125086998194, "lon": 155.45723954733847, "alt_km": 754.1727556168444, "timestamp": "2025-12-16T15:45:51.443198+00:00", "meta": {"OBJECT_NAME": "COSMOS 2251 DEB", "OBJECT_ID": "1993-036BCT", "EPOCH": "2025-12-15T17:53:01.504320", "MEAN_MOTION": 14.49828395, "ECCENTRICITY": 0.00492875, "INCLINATION": 74.0116, "RA_OF_ASC_NODE": 109.1758, "ARG_OF_PERICENTER": 257.8453, "MEAN_ANOMALY": 101.7184, "EPHEMERIS_TYPE": 0, "CLASSIFICATION_TYPE": "U", "NORAD_CAT_ID": 36533, "ELEMENT_SET_NO": 999, "REV_AT_EPOCH": 84528, "BSTAR": 0.00040495096, "MEAN_MOTION_DOT": 1.558e-05, "MEAN_MOTION_DDOT": 0}, "tle": {"line1": "1 36533U 93036BCT 25349.74515630  .00001558  00000+0  40495-3 0  9998", "line2": "2 36533  74.0116 109.1758 0049287 257.8453 101.7184 14.49828395845288"}}, "geometry": {"type": "Point", "coordinates": [155.45723954733847, 68.90125086998194]}}, {"type": "Feature", "properties": {"norad_id": 36539, "name": "COSMOS 2251 DEB", "group": "cosmos-2251-debris", "lat": 48.2241971399012, "lon": 66.41224489259398, "alt_km": 705.5598006376495, "timestamp": "2025-12-16T15:45:51.443207+00:00", "meta": {"OBJECT_NAME": "COSMOS 2251 DEB", "OBJECT_ID": "1993-036BCZ", "EPOCH": "2025-12-15T21:25:58.116000", "MEAN_MOTION": 14.59323994, "ECCENTRICITY": 0.00270107, "INCLINATION": 74.0245, "RA_OF_ASC_NODE": 49.1649, "ARG_OF_PERICENTER": 193.836, "MEAN_ANOMALY": 166.2068, "EPHEMERIS_TYPE": 0, "CLASSIFICATION_TYPE": "U", "NORAD_CAT_ID": 36539, "ELEMENT_SET_NO": 999, "REV_AT_EPOCH": 83993, "BSTAR": 0.00046878635, "MEAN_MOTION_DOT": 2.198e-05, "MEAN_MOTION_DDOT": 0}, "tle": {"line1": "1 36539U 93036BCZ 25349.89303375  .00002198  00000+0  46879-3 0  9994", "line2": "2 36539  74.0245  49.1649 0027010 193.8360 166.2068 14.59323994839933"}}, "geometry": {"type": "Point", "coordinates": [66.41224489259398, 48.2241971399012]}}]}